{
  "type": "FeatureCollection",
  "features": [
    {
      "type": "Feature",
      "properties": {
        "norad_id": 58647,
        "name": "TIANMU-1 13",
        "group": "weather",
        "lat": -52.134530422427865,
        "lon": -179.35406444470664,
        "alt_km": 495.09520289483135,
        "timestamp": "2025-12-16T15:45:50.634353+00:00",
        "meta_object_name": "TIANMU-1 13",
        "meta_object_id": "2023-205C",
        "meta_epoch": "2025-12-16T00:34:08.862816",
        "meta_mean_motion": 15.24568595,
        "meta_eccentricity": 0.00060705,
        "meta_inclination": 97.3622,
        "meta_ra_of_asc_node": 9.5963,
        "meta_arg_of_pericenter": 252.3992,
        "meta_mean_anomaly": 107.6583,
        "meta_ephemeris_type": 0,
        "meta_classification_type": "U",
        "meta_norad_cat_id": 58647,
        "meta_element_set_no": 999,
        "meta_rev_at_epoch": 10957,
        "meta_bstar": 0.0002038721,
        "meta_mean_motion_dot": 4.953e-05,
        "meta_mean_motion_ddot": 0,
        "tle_line1": "1 58647U 23205C   25350.02371369  .00004953  00000+0  20387-3 0  9991",
        "tle_line2": "2 58647  97.3622   9.5963 0006070 252.3992 107.6583 15.24568595109570"
      },
      "geometry": {
        "type": "Point",
        "coordinates": [
          -179.35406444470664,
          -52.134530422427865
        ]
      }
    },
    {
      "type": "Feature",
      "properties": {
        "norad_id": 58648,
        "name": "TIANMU-1 14",
        "group": "weather",
        "lat": -36.18466935274682,
        "lon": 14.985587070456063,
        "alt_km": 496.70931222209583,
        "timestamp": "2025-12-16T15:45:50.634363+00:00",
        "meta_object_name": "TIANMU-1 14",
        "meta_object_id": "2023-205D",
        "meta_epoch": "2025-12-16T00:10:17.658912",
        "meta_mean_motion": 15.24551965,
        "meta_eccentricity": 0.00068523,
        "meta_inclination": 97.3554,
        "meta_ra_of_asc_node": 8.9258,
        "meta_arg_of_pericenter": 258.3291,
        "meta_mean_anomaly": 101.7178,
        "meta_ephemeris_type": 0,
        "meta_classification_type": "U",
        "meta_norad_cat_id": 58648,
        "meta_element_set_no": 999,
        "meta_rev_at_epoch": 10957,
        "meta_bstar": 0.00020951039,
        "meta_mean_motion_dot": 5.09e-05,
        "meta_mean_motion_ddot": 0,
        "tle_line1": "1 58648U 23205D   25350.00714883  .00005090  00000+0  20951-3 0  9992",
        "tle_line2": "2 58648  97.3554   8.9258 0006852 258.3291 101.7178 15.24551965109579"
      },
      "geometry": {
        "type": "Point",
        "coordinates": [
          14.985587070456063,
          -36.18466935274682
        ]
      }
    },
    {
      "type": "Feature",
      "properties": {
        "norad_id": 58660,
        "name": "TIANMU-1 19",
        "group": "weather",
        "lat": -81.4070259160054,
        "lon": -138.15566995464053,
        "alt_km": 486.8795886083517,
        "timestamp": "2025-12-16T15:45:50.634375+00:00",
        "meta_object_name": "TIANMU-1 19",
        "meta_object_id": "2023-208A",
        "meta_epoch": "2025-12-15T22:53:12.367104",
        "meta_mean_motion": 15.27911472,
        "meta_eccentricity": 0.00042126,
        "meta_inclination": 97.4387,
        "meta_ra_of_asc_node": 100.9841,
        "meta_arg_of_pericenter": 238.6093,
        "meta_mean_anomaly": 121.4735,
        "meta_ephemeris_type": 0,
        "meta_classification_type": "U",
        "meta_norad_cat_id": 58660,
        "meta_element_set_no": 999,
        "meta_rev_at_epoch": 10931,
        "meta_bstar": 0.00025665393,
        "meta_mean_motion_dot": 6.918e-05,
        "meta_mean_motion_ddot": 0,
        "tle_line1": "1 58660U 23208A   25349.95361536  .00006918  00000+0  25665-3 0  9991",
        "tle_line2": "2 58660  97.4387 100.9841 0004212 238.6093 121.4735 15.27911472109314"
      },
      "geometry": {
        "type": "Point",
        "coordinates": [
          -138.15566995464053,
          -81.4070259160054
        ]
      }
    },
    {
      "type": "Feature",
      "properties": {
        "norad_id": 58661,
        "name": "TIANMU-1 20",
        "group": "weather",
        "lat": -3.369210119897151,
        "lon": 102.57768989918434,
        "alt_km": 483.2588751852363,
        "timestamp": "2025-12-16T15:45:50.634386+00:00",
        "meta_object_name": "TIANMU-1 20",
        "meta_object_id": "2023-208B",
        "meta_epoch": "2025-12-15T22:30:10.044864",
        "meta_mean_motion": 15.29101776,
        "meta_eccentricity": 0.00063676,
        "meta_inclination": 97.4325,
        "meta_ra_of_asc_node": 101.4189,
        "meta_arg_of_pericenter": 252.4153,
        "meta_mean_anomaly": 107.6391,
        "meta_ephemeris_type": 0,
        "meta_classification_type": "U",
        "meta_norad_cat_id": 58661,
        "meta_element_set_no": 999,
        "meta_rev_at_epoch": 10938,
        "meta_bstar": 0.00025954376,
        "meta_mean_motion_dot": 7.26e-05,
        "meta_mean_motion_ddot": 0,
        "tle_line1": "1 58661U 23208B   25349.93761626  .00007260  00000+0  25954-3 0  9996",
        "tle_line2": "2 58661  97.4325 101.4189 0006367 252.4153 107.6391 15.29101776109383"
      },
      "geometry": {
        "type": "Point",
        "coordinates": [
          102.57768989918434,
          -3.369210119897151
        ]
      }
    },
    {
      "type": "Feature",
      "properties": {
        "norad_id": 58662,
        "name": "TIANMU-1 21",
        "group": "weather",
        "lat": 36.393221037486775,
        "lon": 98.53812524149306,
        "alt_km": 472.1006024228627,
        "timestamp": "2025-12-16T15:45:50.634396+00:00",
        "meta_object_name": "TIANMU-1 21",
        "meta_object_id": "2023-208C",
        "meta_epoch": "2025-12-15T22:21:22.754304",
        "meta_mean_motion": 15.31623182,
        "meta_eccentricity": 0.00059596,
        "meta_inclination": 97.4372,
        "meta_ra_of_asc_node": 103.3356,
        "meta_arg_of_pericenter": 246.5601,
        "meta_mean_anomaly": 113.5014,
        "meta_ephemeris_type": 0,
        "meta_classification_type": "U",
        "meta_norad_cat_id": 58662,
        "meta_element_set_no": 999,
        "meta_rev_at_epoch": 10948,
        "meta_bstar": 0.00029041871,
        "meta_mean_motion_dot": 8.795e-05,
        "meta_mean_motion_ddot": 0,
        "tle_line1": "1 58662U 23208C   25349.93151336  .00008795  00000+0  29042-3 0  9994",
        "tle_line2": "2 58662  97.4372 103.3356 0005959 246.5601 113.5014 15.31623182109483"
      },
      "geometry": {
        "type": "Point",
        "coordinates": [
          98.53812524149306,
          36.393221037486775
        ]
      }
    },
    {
      "type": "Feature",
      "properties": {
        "norad_id": 58663,
        "name": "TIANMU-1 22",
        "group": "weather",
        "lat": -80.05274119279764,
        "lon": -126.41116032844788,
        "alt_km": 488.31431907991373,
        "timestamp": "2025-12-16T15:45:50.634406+00:00",
        "meta_object_name": "TIANMU-1 22",
        "meta_object_id": "2023-208D",
        "meta_epoch": "2025-12-15T22:53:38.611104",
        "meta_mean_motion": 15.27661517,
        "meta_eccentricity": 0.00026699,
        "meta_inclination": 97.4382,
        "meta_ra_of_asc_node": 101.0421,
        "meta_arg_of_pericenter": 270.32,
        "meta_mean_anomaly": 89.7733,
        "meta_ephemeris_type": 0,
        "meta_classification_type": "U",
        "meta_norad_cat_id": 58663,
        "meta_element_set_no": 999,
        "meta_rev_at_epoch": 10932,
        "meta_bstar": 0.00023648262,
        "meta_mean_motion_dot": 6.319e-05,
        "meta_mean_motion_ddot": 0,
        "tle_line1": "1 58663U 23208D   25349.95391911  .00006319  00000+0  23648-3 0  9998",
        "tle_line2": "2 58663  97.4382 101.0421 0002669 270.3200  89.7733 15.27661517109322"
      },
      "geometry": {
        "type": "Point",
        "coordinates": [
          -126.41116032844788,
          -80.05274119279764
        ]
      }
    },
    {
      "type": "Feature",
      "properties": {
        "norad_id": 58700,
        "name": "TIANMU-1 15",
        "group": "weather",
        "lat": -11.693914483986951,
        "lon": 173.6660350015271,
        "alt_km": 495.4759974161225,
        "timestamp": "2025-12-16T15:45:50.634418+00:00",
        "meta_object_name": "TIANMU-1 15",
        "meta_object_id": "2024-004A",
        "meta_epoch": "2025-12-15T13:02:10.173984",
        "meta_mean_motion": 15.24523626,
        "meta_eccentricity": 0.00056536,
        "meta_inclination": 97.4626,
        "meta_ra_of_asc_node": 171.0022,
        "meta_arg_of_pericenter": 279.9728,
        "meta_mean_anomaly": 80.0871,
        "meta_ephemeris_type": 0,
        "meta_classification_type": "U",
        "meta_norad_cat_id": 58700,
        "meta_element_set_no": 999,
        "meta_rev_at_epoch": 10777,
        "meta_bstar": 0.00021318175,
        "meta_mean_motion_dot": 5.174e-05,
        "meta_mean_motion_ddot": 0,
        "tle_line1": "1 58700U 24004A   25349.54317331  .00005174  00000+0  21318-3 0  9994",
        "tle_line2": "2 58700  97.4626 171.0022 0005653 279.9728  80.0871 15.24523626107774"
      },
      "geometry": {
        "type": "Point",
        "coordinates": [
          173.6660350015271,
          -11.693914483986951
        ]
      }
    }
  ]
}